[{"OBJECT_NAME":"STARLINK-5702","OBJECT_ID":"2023-020BF","EPOCH":"2026-03-09T03:57:53.551296","MEAN_MOTION":15.02529652,"ECCENTRICITY":0.00015279,"INCLINATION":43.0062,"RA_OF_ASC_NODE":354.2381,"ARG_OF_PERICENTER":277.605,"MEAN_ANOMALY":82.4619,"EPHEMERIS_TYPE":0,"CLASSIFICATION_TYPE":"U","NORAD_CAT_ID":55622,"ELEMENT_SET_NO":999,"REV_AT_EPOCH":16899,"BSTAR":-3.7877432e-5,"MEAN_MOTION_DOT":-7.15e-6,"MEAN_MOTION_DDOT":0},{"OBJECT_NAME":"FREGAT DEB","OBJECT_ID":"2011-037P","EPOCH":"2026-03-09T04:42:36.590112","MEAN_MOTION":12.5577086,"ECCENTRICITY":0.13064238,"INCLINATION":51.4197,"RA_OF_ASC_NODE":10.8846,"ARG_OF_PERICENTER":84.5839,"MEAN_ANOMALY":290.2261,"EPHEMERIS_TYPE":0,"CLASSIFICATION_TYPE":"U","NORAD_CAT_ID":45620,"ELEMENT_SET_NO":999,"REV_AT_EPOCH":24879,"BSTAR":0.0060807936,"MEAN_MOTION_DOT":0.00041085,"MEAN_MOTION_DDOT":0}]
